{"type": "FeatureCollection", "features": [ {"type": "Feature", "properties": {"norad_id": 32289, "name": "YAOGAN-3", "group": "resource", "lat": 41.142152534802946, "lon": 11.330278300726965, "alt_km": 594.2264876928002, "timestamp": "2025-12-17T15:50:09.433439+00:00", "meta": {"OBJECT_NAME": "YAOGAN-3", "OBJECT_ID": "2007-055A", "EPOCH": "2025-12-17T05:58:43.288032", "MEAN_MOTION": 14.89883912, "ECCENTRICITY": 0.00013664, "INCLINATION": 97.8369, "RA_OF_ASC_NODE": 17.8344, "ARG_OF_PERICENTER": 74.2197, "MEAN_ANOMALY": 285.9171, "EPHEMERIS_TYPE": 0, "CLASSIFICATION_TYPE": "U", "NORAD_CAT_ID": 32289, "ELEMENT_SET_NO": 999, "REV_AT_EPOCH": 97876, "BSTAR": 0.00026374522, "MEAN_MOTION_DOT": 2.48e-05, "MEAN_MOTION_DDOT": 0}, "tle": {"line1": "1 32289U 07055A   25351.24911213  .00002480  00000+0  26375-3 0  9999", "line2": "2 32289  97.8369  17.8344 0001366  74.2197 285.9171 14.89883912978764"}}, "geometry": {"type": "Point", "coordinates": [11.330278300726965, 41.142152534802946]}}, {"type": "Feature", "properties": {"norad_id": 32376, "name": "COSMO-SKYMED 2", "group": "resource", "lat": -4.373482029560413, "lon": -7.69752354920851, "alt_km": 626.3298979348947, "timestamp": "2025-12-17T15:50:09.433450+00:00", "meta": {"OBJECT_NAME": "COSMO-SKYMED 2", "OBJECT_ID": "2007-059A", "EPOCH": "2025-12-17T06:54:21.186144", "MEAN_MOTION": 14.82148304, "ECCENTRICITY": 0.00013629, "INCLINATION": 97.8804, "RA_OF_ASC_NODE": 172.5431, "ARG_OF_PERICENTER": 83.2215, "MEAN_ANOMALY": 276.9154, "EPHEMERIS_TYPE": 0, "CLASSIFICATION_TYPE": "U", "NORAD_CAT_ID": 32376, "ELEMENT_SET_NO": 999, "REV_AT_EPOCH": 97505, "BSTAR": 7.2369502e-05, "MEAN_MOTION_DOT": 5.24e-06, "MEAN_MOTION_DDOT": 0}, "tle": {"line1": "1 32376U 07059A   25351.28774521  .00000524  00000+0  72370-4 0  9997", "line2": "2 32376  97.8804 172.5431 0001362  83.2215 276.9154 14.82148304975050"}}, "geometry": {"type": "Point", "coordinates": [-7.69752354920851, -4.373482029560413]}}, {"type": "Feature", "properties": {"norad_id": 32382, "name": "RADARSAT-2", "group": "resource", "lat": -67.72983774265016, "lon": 17.8109985877768, "alt_km": 799.7221954383886, "timestamp": "2025-12-17T15:50:09.433460+00:00", "meta": {"OBJECT_NAME": "RADARSAT-2", "OBJECT_ID": "2007-061A", "EPOCH": "2025-12-17T07:45:48.346272", "MEAN_MOTION": 14.29983316, "ECCENTRICITY": 0.00011067, "INCLINATION": 98.5796, "RA_OF_ASC_NODE": 355.8474, "ARG_OF_PERICENTER": 84.1208, "MEAN_ANOMALY": 276.01, "EPHEMERIS_TYPE": 0, "CLASSIFICATION_TYPE": "U", "NORAD_CAT_ID": 32382, "ELEMENT_SET_NO": 999, "REV_AT_EPOCH": 93996, "BSTAR": 4.3643362e-05, "MEAN_MOTION_DOT": 6.9e-07, "MEAN_MOTION_DDOT": 0}, "tle": {"line1": "1 32382U 07061A   25351.32347623  .00000069  00000+0  43643-4 0  9996", "line2": "2 32382  98.5796 355.8474 0001106  84.1208 276.0100 14.29983316939969"}}, "geometry": {"type": "Point", "coordinates": [17.8109985877768, -67.72983774265016]}}, {"type": "Feature", "properties": {"norad_id": 32783, "name": "CARTOSAT-2A", "group": "resource", "lat": -81.65063183640592, "lon": 152.39955697650882, "alt_km": 638.8330734780075, "timestamp": "2025-12-17T15:50:09.433471+00:00", "meta": {"OBJECT_NAME": "CARTOSAT-2A", "OBJECT_ID": "2008-021A", "EPOCH": "2025-12-17T08:08:11.156064", "MEAN_MOTION": 14.78945755, "ECCENTRICITY": 0.00115626, "INCLINATION": 97.7931, "RA_OF_ASC_NODE": 41.0192, "ARG_OF_PERICENTER": 349.7495, "MEAN_ANOMALY": 10.3479, "EPHEMERIS_TYPE": 0, "CLASSIFICATION_TYPE": "U", "NORAD_CAT_ID": 32783, "ELEMENT_SET_NO": 999, "REV_AT_EPOCH": 95192, "BSTAR": 8.0928445e-05, "MEAN_MOTION_DOT": 5.47e-06, "MEAN_MOTION_DDOT": 0}, "tle": {"line1": "1 32783U 08021A   25351.33901801  .00000547  00000+0  80928-4 0  9991", "line2": "2 32783  97.7931  41.0192 0011562 349.7495  10.3479 14.78945755951929"}}, "geometry": {"type": "Point", "coordinates": [152.39955697650882, -81.65063183640592]}}, {"type": "Feature", "properties": {"norad_id": 33320, "name": "HUANJING 1A (HJ-1A)", "group": "resource", "lat": -31.116583255902885, "lon": 155.0972815439035, "alt_km": 638.231483415957, "timestamp": "2025-12-17T15:50:09.433482+00:00", "meta": {"OBJECT_NAME": "HUANJING 1A (HJ-1A)", "OBJECT_ID": "2008-041A", "EPOCH": "2025-12-17T06:47:30.897600", "MEAN_MOTION": 14.83411479, "ECCENTRICITY": 0.00198924, "INCLINATION": 97.6538, "RA_OF_ASC_NODE": 339.3922, "ARG_OF_PERICENTER": 20.2102, "MEAN_ANOMALY": 339.9896, "EPHEMERIS_TYPE": 0, "CLASSIFICATION_TYPE": "U", "NORAD_CAT_ID": 33320, "ELEMENT_SET_NO": 999, "REV_AT_EPOCH": 93143, "BSTAR": 0.00020761765, "MEAN_MOTION_DOT": 1.658e-05, "MEAN_MOTION_DDOT": 0}, "tle": {"line1": "1 33320U 08041A   25351.28299650  .00001658  00000+0  20762-3 0  9990", "line2": "2 33320  97.6538 339.3922 0019892  20.2102 339.9896 14.83411479931437"}}, "geometry": {"type": "Point", "coordinates": [155.0972815439035, -31.116583255902885]}}, {"type": "Feature", "properties": {"norad_id": 33321, "name": "HUANJING 1B (HJ-1B)", "group": "resource", "lat": 61.30022615458252, "lon": -30.7545639950843, "alt_km": 587.7686966854344, "timestamp": "2025-12-17T15:50:09.433493+00:00", "meta": {"OBJECT_NAME": "HUANJING 1B (HJ-1B)", "OBJECT_ID": "2008-041B", "EPOCH": "2025-12-17T04:13:16.976352", "MEAN_MOTION": 14.828325, "ECCENTRICITY": 0.00381446, "INCLINATION": 97.6398, "RA_OF_ASC_NODE": 342.9749, "ARG_OF_PERICENTER": 61.65, "MEAN_ANOMALY": 298.8553, "EPHEMERIS_TYPE": 0, "CLASSIFICATION_TYPE": "U", "NORAD_CAT_ID": 33321, "ELEMENT_SET_NO": 999, "REV_AT_EPOCH": 93143, "BSTAR": 8.1189085e-05, "MEAN_MOTION_DOT": 6.14e-06, "MEAN_MOTION_DDOT": 0}, "tle": {"line1": "1 33321U 08041B   25351.17589093  .00000614  00000+0  81189-4 0  9994", "line2": "2 33321  97.6398 342.9749 0038144  61.6500 298.8553 14.82832500931435"}}, "geometry": {"type": "Point", "coordinates": [-30.7545639950843, 61.30022615458252]}}, {"type": "Feature", "properties": {"norad_id": 33331, "name": "GEOEYE 1", "group": "resource", "lat": 81.81094948847583, "lon": -20.20276927333289, "alt_km": 672.499243947741, "timestamp": "2025-12-17T15:50:09.433503+00:00", "meta": {"OBJECT_NAME": "GEOEYE 1", "OBJECT_ID": "2008-042A", "EPOCH": "2025-12-17T07:13:59.780640", "MEAN_MOTION": 14.64706639, "ECCENTRICITY": 0.00027687, "INCLINATION": 98.1249, "RA_OF_ASC_NODE": 62.5249, "ARG_OF_PERICENTER": 265.5866, "MEAN_ANOMALY": 94.5021, "EPHEMERIS_TYPE": 0, "CLASSIFICATION_TYPE": "U", "NORAD_CAT_ID": 33331, "ELEMENT_SET_NO": 999, "REV_AT_EPOCH": 92352, "BSTAR": 0.00010776304, "MEAN_MOTION_DOT": 5.26e-06, "MEAN_MOTION_DDOT": 0}, "tle": {"line1": "1 33331U 08042A   25351.30138635  .00000526  00000+0  10776-3 0  9998", "line2": "2 33331  98.1249  62.5249 0002768 265.5866  94.5021 14.64706639923525"}}, "geometry": {"type": "Point", "coordinates": [-20.20276927333289, 81.81094948847583]}}, {"type": "Feature", "properties": {"norad_id": 33396, "name": "THEOS", "group": "resource", "lat": -55.19901553809902, "lon": -142.95152444494678, "alt_km": 832.6910302916949, "timestamp": "2025-12-17T15:50:09.433514+00:00", "meta": {"OBJECT_NAME": "THEOS", "OBJECT_ID": "2008-049A", "EPOCH": "2025-12-17T06:16:22.134720", "MEAN_MOTION": 14.20097135, "ECCENTRICITY": 0.00011605, "INCLINATION": 98.5869, "RA_OF_ASC_NODE": 49.2178, "ARG_OF_PERICENTER": 95.0067, "MEAN_ANOMALY": 265.1243, "EPHEMERIS_TYPE": 0, "CLASSIFICATION_TYPE": "U", "NORAD_CAT_ID": 33396, "ELEMENT_SET_NO": 999, "REV_AT_EPOCH": 89214, "BSTAR": -1.9482722e-05, "MEAN_MOTION_DOT": -8.4e-07, "MEAN_MOTION_DDOT": 0}, "tle": {"line1": "1 33396U 08049A   25351.26136730 -.00000084  00000+0 -19483-4 0  9991", "line2": "2 33396  98.5869  49.2178 0001160  95.0067 265.1243 14.20097135892146"}}, "geometry": {"type": "Point", "coordinates": [-142.95152444494678, -55.19901553809902]}}, {"type": "Feature", "properties": {"norad_id": 33412, "name": "COSMO-SKYMED 3", "group": "resource", "lat": 31.028948715267916, "lon": -162.62500071861263, "alt_km": 555.1150036269228, "timestamp": "2025-12-17T15:50:09.433525+00:00", "meta": {"OBJECT_NAME": "COSMO-SKYMED 3", "OBJECT_ID": "2008-054A", "EPOCH": "2025-12-17T07:43:13.687680", "MEAN_MOTION": 15.05398691, "ECCENTRICITY": 0.00165345, "INCLINATION": 97.8474, "RA_OF_ASC_NODE": 201.7903, "ARG_OF_PERICENTER": 157.1215, "MEAN_ANOMALY": 203.0751, "EPHEMERIS_TYPE": 0, "CLASSIFICATION_TYPE": "U", "NORAD_CAT_ID": 33412, "ELEMENT_SET_NO": 999, "REV_AT_EPOCH": 92956, "BSTAR": 0.0002198889, "MEAN_MOTION_DOT": 3.097e-05, "MEAN_MOTION_DDOT": 0}, "tle": {"line1": "1 33412U 08054A   25351.32168620  .00003097  00000+0  21989-3 0  9994", "line2": "2 33412  97.8474 201.7903 0016534 157.1215 203.0751 15.05398691929563"}}, "geometry": {"type": "Point", "coordinates": [-162.62500071861263, 31.028948715267916]}}, {"type": "Feature", "properties": {"norad_id": 33446, "name": "YAOGAN-4", "group": "resource", "lat": -28.15997052722219, "lon": -74.01623525413152, "alt_km": 618.2689023201019, "timestamp": "2025-12-17T15:50:09.433536+00:00", "meta": {"OBJECT_NAME": "YAOGAN-4", "OBJECT_ID": "2008-061A", "EPOCH": "2025-12-17T07:51:55.678464", "MEAN_MOTION": 14.82696189, "ECCENTRICITY": 0.0013301, "INCLINATION": 97.9188, "RA_OF_ASC_NODE": 281.382, "ARG_OF_PERICENTER": 307.3083, "MEAN_ANOMALY": 52.6917, "EPHEMERIS_TYPE": 0, "CLASSIFICATION_TYPE": "U", "NORAD_CAT_ID": 33446, "ELEMENT_SET_NO": 999, "REV_AT_EPOCH": 91871, "BSTAR": 0.00015900688, "MEAN_MOTION_DOT": 1.231e-05, "MEAN_MOTION_DDOT": 0}, "tle": {"line1": "1 33446U 08061A   25351.32772776  .00001231  00000+0  15901-3 0  9997", "line2": "2 33446  97.9188 281.3820 0013301 307.3083  52.6917 14.82696189918710"}}, "geometry": {"type": "Point", "coordinates": [-74.01623525413152, -28.15997052722219]}}]}